CONNECTA IOT-13         
1 67400U 26004AP  26032.44137706  .00007025  00000+0  34479-3 0  9997
2 67400  97.4538  33.5087 0011008  98.0436 262.2047 15.18346097  3168
CONNECTA IOT-14         
1 67401U 26004AQ  26032.50583721  .00010288  00000+0  50150-3 0  9996
2 67401  97.4481  33.5592 0011807  92.4879 267.7707 15.18454577  3170
CONNECTA IOT-15         
1 67402U 26004AR  26032.39562951  .00005109  00000+0  26318-3 0  9991
2 67402  97.4544  33.4187 0004938  80.5321 279.6470 15.16821802  3140
SHIJIAN-29B (SJ-29B)    
1 67403U 25315C   26032.47073810 -.00000078  00000+0  00000+0 0  9993
2 67403   3.0542  98.6670 0001683 308.2450 327.3210  1.00271407   327
STARLINK-36484          
1 67404U 26005A   26032.50002314 -.00072443  00000+0 -12397-2 0  9997
2 67404  43.0003  85.9439 0001009 298.5973 309.2165 15.50597474  4326
STARLINK-36452          
1 67405U 26005B   26032.50002314  .00102562  00000+0  17368-2 0  9995
2 67405  43.0004  85.9400 0001038 296.6109 313.1691 15.50489710  4329
STARLINK-36409          
1 67406U 26005C   26032.50002314  .00120946  00000+0  20467-2 0  9996
2 67406  43.0007  85.9341 0002177 300.4902 311.1987 15.50427132  4367
STARLINK-36510          
1 67407U 26005D   26032.50002314  .00121123  00000+0  20494-2 0  9995
2 67407  43.0007  85.9293 0002237 299.1110 314.4892 15.50429639  4361
STARLINK-36509          
1 67408U 26005E   26032.50002314  .00107711  00000+0  18225-2 0  9992
2 67408  43.0003  85.9249 0001014 298.7973 316.7313 15.50488890  4360
STARLINK-36507          
1 67409U 26005F   26032.50002314  .00119287  00000+0  20191-2 0  9999
2 67409  43.0006  85.9194 0002131 298.6605 318.7818 15.50427343  4363
STARLINK-36508          
1 67410U 26005G   26032.50002314  .00086630  00000+0  14704-2 0  9999
2 67410  43.0005  85.9146 0001601 293.2549 326.1049 15.50498090  4366
STARLINK-36503          
1 67411U 26005H   26032.50002314  .00097154  00000+0  16466-2 0  9990
2 67411  43.0005  85.9106 0001087 299.5802 321.7070 15.50490424  4102
