CCSDS_OMM_VERS = 2.0
CREATION_DATE  = 
ORIGINATOR     = 

OBJECT_NAME    = CONNECTA IOT-13
OBJECT_ID      = 2026-004AP
CENTER_NAME    = EARTH
REF_FRAME      = TEME
TIME_SYSTEM    = UTC
MEAN_ELEMENT_THEORY = SGP/SGP4

EPOCH          = 2026-02-01T10:35:34.977984
MEAN_MOTION    = 15.18346097
ECCENTRICITY   = .0011008
INCLINATION    = 97.4538
RA_OF_ASC_NODE = 33.5087
ARG_OF_PERICENTER = 98.0436
MEAN_ANOMALY   = 262.2047

EPHEMERIS_TYPE = 0
CLASSIFICATION_TYPE = U
NORAD_CAT_ID   = 67400
ELEMENT_SET_NO = 999
REV_AT_EPOCH   = 316
BSTAR          = .34479E-3
MEAN_MOTION_DOT = .7025E-4
MEAN_MOTION_DDOT = 0

CCSDS_OMM_VERS = 2.0
CREATION_DATE  = 
ORIGINATOR     = 

OBJECT_NAME    = CONNECTA IOT-14
OBJECT_ID      = 2026-004AQ
CENTER_NAME    = EARTH
REF_FRAME      = TEME
TIME_SYSTEM    = UTC
MEAN_ELEMENT_THEORY = SGP/SGP4

EPOCH          = 2026-02-01T12:08:24.334944
MEAN_MOTION    = 15.18454577
ECCENTRICITY   = .0011807
INCLINATION    = 97.4481
RA_OF_ASC_NODE = 33.5592
ARG_OF_PERICENTER = 92.4879
MEAN_ANOMALY   = 267.7707

EPHEMERIS_TYPE = 0
CLASSIFICATION_TYPE = U
NORAD_CAT_ID   = 67401
ELEMENT_SET_NO = 999
REV_AT_EPOCH   = 317
BSTAR          = .5015E-3
MEAN_MOTION_DOT = .10288E-3
MEAN_MOTION_DDOT = 0

CCSDS_OMM_VERS = 2.0
CREATION_DATE  = 
ORIGINATOR     = 

OBJECT_NAME    = CONNECTA IOT-15
OBJECT_ID      = 2026-004AR
CENTER_NAME    = EARTH
REF_FRAME      = TEME
TIME_SYSTEM    = UTC
MEAN_ELEMENT_THEORY = SGP/SGP4

EPOCH          = 2026-02-01T09:29:42.389664
MEAN_MOTION    = 15.16821802
ECCENTRICITY   = .0004938
INCLINATION    = 97.4544
RA_OF_ASC_NODE = 33.4187
ARG_OF_PERICENTER = 80.5321
MEAN_ANOMALY   = 279.6470

EPHEMERIS_TYPE = 0
CLASSIFICATION_TYPE = U
NORAD_CAT_ID   = 67402
ELEMENT_SET_NO = 999
REV_AT_EPOCH   = 314
BSTAR          = .26318E-3
MEAN_MOTION_DOT = .5109E-4
MEAN_MOTION_DDOT = 0

CCSDS_OMM_VERS = 2.0
CREATION_DATE  = 
ORIGINATOR     = 

OBJECT_NAME    = SHIJIAN-29B (SJ-29B)
OBJECT_ID      = 2025-315C
CENTER_NAME    = EARTH
REF_FRAME      = TEME
TIME_SYSTEM    = UTC
MEAN_ELEMENT_THEORY = SGP/SGP4

EPOCH          = 2026-02-01T11:17:51.771840
MEAN_MOTION    = 1.00271407
ECCENTRICITY   = .0001683
INCLINATION    = 3.0542
RA_OF_ASC_NODE = 98.6670
ARG_OF_PERICENTER = 308.2450
MEAN_ANOMALY   = 327.3210

EPHEMERIS_TYPE = 0
CLASSIFICATION_TYPE = U
NORAD_CAT_ID   = 67403
ELEMENT_SET_NO = 999
REV_AT_EPOCH   = 32
BSTAR          = 0
MEAN_MOTION_DOT = -.78E-6
MEAN_MOTION_DDOT = 0

CCSDS_OMM_VERS = 2.0
CREATION_DATE  = 
ORIGINATOR     = 

OBJECT_NAME    = STARLINK-36484
OBJECT_ID      = 2026-005A
CENTER_NAME    = EARTH
REF_FRAME      = TEME
TIME_SYSTEM    = UTC
MEAN_ELEMENT_THEORY = SGP/SGP4

EPOCH          = 2026-02-01T12:00:01.999296
MEAN_MOTION    = 15.50597474
ECCENTRICITY   = .0001009
INCLINATION    = 43.0003
RA_OF_ASC_NODE = 85.9439
ARG_OF_PERICENTER = 298.5973
MEAN_ANOMALY   = 309.2165

EPHEMERIS_TYPE = 0
CLASSIFICATION_TYPE = U
NORAD_CAT_ID   = 67404
ELEMENT_SET_NO = 999
REV_AT_EPOCH   = 432
BSTAR          = -.12397E-2
MEAN_MOTION_DOT = -.72443E-3
MEAN_MOTION_DDOT = 0

CCSDS_OMM_VERS = 2.0
CREATION_DATE  = 
ORIGINATOR     = 

OBJECT_NAME    = STARLINK-36452
OBJECT_ID      = 2026-005B
CENTER_NAME    = EARTH
REF_FRAME      = TEME
TIME_SYSTEM    = UTC
MEAN_ELEMENT_THEORY = SGP/SGP4

EPOCH          = 2026-02-01T12:00:01.999296
MEAN_MOTION    = 15.50489710
ECCENTRICITY   = .0001038
INCLINATION    = 43.0004
RA_OF_ASC_NODE = 85.9400
ARG_OF_PERICENTER = 296.6109
MEAN_ANOMALY   = 313.1691

EPHEMERIS_TYPE = 0
CLASSIFICATION_TYPE = U
NORAD_CAT_ID   = 67405
ELEMENT_SET_NO = 999
REV_AT_EPOCH   = 432
BSTAR          = .17368E-2
MEAN_MOTION_DOT = .102562E-2
MEAN_MOTION_DDOT = 0

CCSDS_OMM_VERS = 2.0
CREATION_DATE  = 
ORIGINATOR     = 

OBJECT_NAME    = STARLINK-36409
OBJECT_ID      = 2026-005C
CENTER_NAME    = EARTH
REF_FRAME      = TEME
TIME_SYSTEM    = UTC
MEAN_ELEMENT_THEORY = SGP/SGP4

EPOCH          = 2026-02-01T12:00:01.999296
MEAN_MOTION    = 15.50427132
ECCENTRICITY   = .0002177
INCLINATION    = 43.0007
RA_OF_ASC_NODE = 85.9341
ARG_OF_PERICENTER = 300.4902
MEAN_ANOMALY   = 311.1987

EPHEMERIS_TYPE = 0
CLASSIFICATION_TYPE = U
NORAD_CAT_ID   = 67406
ELEMENT_SET_NO = 999
REV_AT_EPOCH   = 436
BSTAR          = .20467E-2
MEAN_MOTION_DOT = .120946E-2
MEAN_MOTION_DDOT = 0

CCSDS_OMM_VERS = 2.0
CREATION_DATE  = 
ORIGINATOR     = 

OBJECT_NAME    = STARLINK-36510
OBJECT_ID      = 2026-005D
CENTER_NAME    = EARTH
REF_FRAME      = TEME
TIME_SYSTEM    = UTC
MEAN_ELEMENT_THEORY = SGP/SGP4

EPOCH          = 2026-02-01T12:00:01.999296
MEAN_MOTION    = 15.50429639
ECCENTRICITY   = .0002237
INCLINATION    = 43.0007
RA_OF_ASC_NODE = 85.9293
ARG_OF_PERICENTER = 299.1110
MEAN_ANOMALY   = 314.4892

EPHEMERIS_TYPE = 0
CLASSIFICATION_TYPE = U
NORAD_CAT_ID   = 67407
ELEMENT_SET_NO = 999
REV_AT_EPOCH   = 436
BSTAR          = .20494E-2
MEAN_MOTION_DOT = .121123E-2
MEAN_MOTION_DDOT = 0

CCSDS_OMM_VERS = 2.0
CREATION_DATE  = 
ORIGINATOR     = 

OBJECT_NAME    = STARLINK-36509
OBJECT_ID      = 2026-005E
CENTER_NAME    = EARTH
REF_FRAME      = TEME
TIME_SYSTEM    = UTC
MEAN_ELEMENT_THEORY = SGP/SGP4

EPOCH          = 2026-02-01T12:00:01.999296
MEAN_MOTION    = 15.50488890
ECCENTRICITY   = .0001014
INCLINATION    = 43.0003
RA_OF_ASC_NODE = 85.9249
ARG_OF_PERICENTER = 298.7973
MEAN_ANOMALY   = 316.7313

EPHEMERIS_TYPE = 0
CLASSIFICATION_TYPE = U
NORAD_CAT_ID   = 67408
ELEMENT_SET_NO = 999
REV_AT_EPOCH   = 436
BSTAR          = .18225E-2
MEAN_MOTION_DOT = .107711E-2
MEAN_MOTION_DDOT = 0

CCSDS_OMM_VERS = 2.0
CREATION_DATE  = 
ORIGINATOR     = 

OBJECT_NAME    = STARLINK-36507
OBJECT_ID      = 2026-005F
CENTER_NAME    = EARTH
REF_FRAME      = TEME
TIME_SYSTEM    = UTC
MEAN_ELEMENT_THEORY = SGP/SGP4

EPOCH          = 2026-02-01T12:00:01.999296
MEAN_MOTION    = 15.50427343
ECCENTRICITY   = .0002131
INCLINATION    = 43.0006
RA_OF_ASC_NODE = 85.9194
ARG_OF_PERICENTER = 298.6605
MEAN_ANOMALY   = 318.7818

EPHEMERIS_TYPE = 0
CLASSIFICATION_TYPE = U
NORAD_CAT_ID   = 67409
ELEMENT_SET_NO = 999
REV_AT_EPOCH   = 436
BSTAR          = .20191E-2
MEAN_MOTION_DOT = .119287E-2
MEAN_MOTION_DDOT = 0

CCSDS_OMM_VERS = 2.0
CREATION_DATE  = 
ORIGINATOR     = 

OBJECT_NAME    = STARLINK-36508
OBJECT_ID      = 2026-005G
CENTER_NAME    = EARTH
REF_FRAME      = TEME
TIME_SYSTEM    = UTC
MEAN_ELEMENT_THEORY = SGP/SGP4

EPOCH          = 2026-02-01T12:00:01.999296
MEAN_MOTION    = 15.50498090
ECCENTRICITY   = .0001601
INCLINATION    = 43.0005
RA_OF_ASC_NODE = 85.9146
ARG_OF_PERICENTER = 293.2549
MEAN_ANOMALY   = 326.1049

EPHEMERIS_TYPE = 0
CLASSIFICATION_TYPE = U
NORAD_CAT_ID   = 67410
ELEMENT_SET_NO = 999
REV_AT_EPOCH   = 436
BSTAR          = .14704E-2
MEAN_MOTION_DOT = .8663E-3
MEAN_MOTION_DDOT = 0

CCSDS_OMM_VERS = 2.0
CREATION_DATE  = 
ORIGINATOR     = 

OBJECT_NAME    = STARLINK-36503
OBJECT_ID      = 2026-005H
CENTER_NAME    = EARTH
REF_FRAME      = TEME
TIME_SYSTEM    = UTC
MEAN_ELEMENT_THEORY = SGP/SGP4

EPOCH          = 2026-02-01T12:00:01.999296
MEAN_MOTION    = 15.50490424
ECCENTRICITY   = .0001087
INCLINATION    = 43.0005
RA_OF_ASC_NODE = 85.9106
ARG_OF_PERICENTER = 299.5802
MEAN_ANOMALY   = 321.7070

EPHEMERIS_TYPE = 0
CLASSIFICATION_TYPE = U
NORAD_CAT_ID   = 67411
ELEMENT_SET_NO = 999
REV_AT_EPOCH   = 410
BSTAR          = .16466E-2
MEAN_MOTION_DOT = .97154E-3
MEAN_MOTION_DDOT = 0

